EUTELSAT HOTBIRD 13F    
1 54048U 22134A   25334.79343903  .00000109  00000+0  00000+0 0  9996
2 54048   0.0534 288.5588 0001976  69.2317  10.7745  1.00271276 11383
EUTELSAT HOTBIRD 13G    
1 54225U 22146A   25334.79343903  .00000109  00000+0  00000+0 0  9996
2 54225   0.0465 238.7534 0002040 303.9027 185.9034  1.00271322  5471
EUTELSAT 10B            
1 54259U 22157A   25334.72145956  .00000090  00000+0  00000+0 0  9995
2 54259   0.0575 104.1330 0001052  64.7704 170.7063  1.00268678 11039
EUTELSAT 36D            
1 59346U 24059A   25334.79794572  .00000177  00000+0  00000+0 0  9997
2 59346   0.0168 320.9663 0000803   5.9848  66.1247  1.00267840  6154
